FLOCK 4G-24             
1 62637U 25009AE  26068.72509072  .00010513  00000+0  38996-3 0  9991
2 62637  97.4061 151.5140 0001802 280.2808  79.8228 15.27784978 63732
STARLINK-33801          
1 63963U 25099M   26068.33505809  .00024919  00000+0  91148-3 0  9997
2 63963  42.9973 178.0831 0000764 282.6824  77.3942 15.27599355 47284
